{"type": "FeatureCollection", "features": [ {"type": "Feature", "properties": {"norad_id": 35290, "name": "COSMOS 2251 DEB", "group": "cosmos-2251-debris", "lat": 31.038563887925918, "lon": 53.830974634029204, "alt_km": 626.5195448466638, "timestamp": "2025-12-20T14:38:02.365081+00:00", "meta": {"OBJECT_NAME": "COSMOS 2251 DEB", "OBJECT_ID": "1993-036AJU", "EPOCH": "2025-12-20T03:08:10.287168", "MEAN_MOTION": 14.80565596, "ECCENTRICITY": 0.00016036, "INCLINATION": 74.0049, "RA_OF_ASC_NODE": 44.8368, "ARG_OF_PERICENTER": 190.188, "MEAN_ANOMALY": 169.9265, "EPHEMERIS_TYPE": 0, "CLASSIFICATION_TYPE": "U", "NORAD_CAT_ID": 35290, "ELEMENT_SET_NO": 999, "REV_AT_EPOCH": 88067, "BSTAR": 0.0010027753, "MEAN_MOTION_DOT": 7.664e-05, "MEAN_MOTION_DDOT": 0}, "tle": {"line1": "1 35290U 93036AJU 25354.13067462  .00007664  00000+0  10028-2 0  9993", "line2": "2 35290  74.0049  44.8368 0001603 190.1880 169.9265 14.80565596880671"}}, "geometry": {"type": "Point", "coordinates": [53.830974634029204, 31.038563887925918]}}, {"type": "Feature", "properties": {"norad_id": 35432, "name": "COSMOS 2251 DEB", "group": "cosmos-2251-debris", "lat": 41.89580747058809, "lon": 13.839349823171744, "alt_km": 487.7176414050482, "timestamp": "2025-12-20T14:38:02.365091+00:00", "meta": {"OBJECT_NAME": "COSMOS 2251 DEB", "OBJECT_ID": "1993-036AKA", "EPOCH": "2025-12-20T01:50:18.903552", "MEAN_MOTION": 15.24046357, "ECCENTRICITY": 0.00124844, "INCLINATION": 74.0227, "RA_OF_ASC_NODE": 0.0698, "ARG_OF_PERICENTER": 329.3512, "MEAN_ANOMALY": 30.6957, "EPHEMERIS_TYPE": 0, "CLASSIFICATION_TYPE": "U", "NORAD_CAT_ID": 35432, "ELEMENT_SET_NO": 999, "REV_AT_EPOCH": 87615, "BSTAR": 0.0018882946, "MEAN_MOTION_DOT": 0.00046162, "MEAN_MOTION_DDOT": 0}, "tle": {"line1": "1 35432U 93036AKA 25354.07660768  .00046162  00000+0  18883-2 0  9995", "line2": "2 35432  74.0227   0.0698 0012484 329.3512  30.6957 15.24046357876152"}}, "geometry": {"type": "Point", "coordinates": [13.839349823171744, 41.89580747058809]}}, {"type": "Feature", "properties": {"norad_id": 35433, "name": "COSMOS 2251 DEB", "group": "cosmos-2251-debris", "lat": -43.922660364707426, "lon": 160.03732993838668, "alt_km": 798.0420295645845, "timestamp": "2025-12-20T14:38:02.365101+00:00", "meta": {"OBJECT_NAME": "COSMOS 2251 DEB", "OBJECT_ID": "1993-036AKB", "EPOCH": "2025-12-10T18:27:52.031808", "MEAN_MOTION": 14.34742553, "ECCENTRICITY": 0.00254013, "INCLINATION": 74.0339, "RA_OF_ASC_NODE": 342.0559, "ARG_OF_PERICENTER": 37.4572, "MEAN_ANOMALY": 142.4072, "EPHEMERIS_TYPE": 0, "CLASSIFICATION_TYPE": "U", "NORAD_CAT_ID": 35433, "ELEMENT_SET_NO": 999, "REV_AT_EPOCH": 86552, "BSTAR": 0.00041847558, "MEAN_MOTION_DOT": 1.164e-05, "MEAN_MOTION_DDOT": 0}, "tle": {"line1": "1 35433U 93036AKB 25344.76935222  .00001164  00000+0  41848-3 0  9992", "line2": "2 35433  74.0339 342.0559 0025401  37.4572 142.4072 14.34742553865528"}}, "geometry": {"type": "Point", "coordinates": [160.03732993838668, -43.922660364707426]}}, {"type": "Feature", "properties": {"norad_id": 35434, "name": "COSMOS 2251 DEB", "group": "cosmos-2251-debris", "lat": -60.269988178241526, "lon": 49.497079727481136, "alt_km": 755.2843674561909, "timestamp": "2025-12-20T14:38:02.365111+00:00", "meta": {"OBJECT_NAME": "COSMOS 2251 DEB", "OBJECT_ID": "1993-036AKC", "EPOCH": "2025-12-13T21:29:58.278624", "MEAN_MOTION": 14.25692247, "ECCENTRICITY": 0.00874643, "INCLINATION": 74.0404, "RA_OF_ASC_NODE": 211.5388, "ARG_OF_PERICENTER": 282.0357, "MEAN_ANOMALY": 77.0999, "EPHEMERIS_TYPE": 0, "CLASSIFICATION_TYPE": "U", "NORAD_CAT_ID": 35434, "ELEMENT_SET_NO": 999, "REV_AT_EPOCH": 86134, "BSTAR": 0.00076141319, "MEAN_MOTION_DOT": 1.854e-05, "MEAN_MOTION_DDOT": 0}, "tle": {"line1": "1 35434U 93036AKC 25347.89581341  .00001854  00000+0  76141-3 0  9999", "line2": "2 35434  74.0404 211.5388 0087464 282.0357  77.0999 14.25692247861349"}}, "geometry": {"type": "Point", "coordinates": [49.497079727481136, -60.269988178241526]}}, {"type": "Feature", "properties": {"norad_id": 35435, "name": "COSMOS 2251 DEB", "group": "cosmos-2251-debris", "lat": 42.84908342652092, "lon": -106.84800551051684, "alt_km": 626.187047656339, "timestamp": "2025-12-20T14:38:02.365121+00:00", "meta": {"OBJECT_NAME": "COSMOS 2251 DEB", "OBJECT_ID": "1993-036AKD", "EPOCH": "2025-12-18T13:24:14.493312", "MEAN_MOTION": 14.78644291, "ECCENTRICITY": 0.00073996, "INCLINATION": 74.0108, "RA_OF_ASC_NODE": 92.6132, "ARG_OF_PERICENTER": 188.8212, "MEAN_ANOMALY": 191.4596, "EPHEMERIS_TYPE": 0, "CLASSIFICATION_TYPE": "U", "NORAD_CAT_ID": 35435, "ELEMENT_SET_NO": 999, "REV_AT_EPOCH": 87625, "BSTAR": 0.0017393261, "MEAN_MOTION_DOT": 0.0001274, "MEAN_MOTION_DDOT": 0}, "tle": {"line1": "1 35435U 93036AKD 25352.55850108  .00012740  00000+0  17393-2 0  9998", "line2": "2 35435  74.0108  92.6132 0007399 188.8212 191.4596 14.78644291876252"}}, "geometry": {"type": "Point", "coordinates": [-106.84800551051684, 42.84908342652092]}}, {"type": "Feature", "properties": {"norad_id": 35439, "name": "COSMOS 2251 DEB", "group": "cosmos-2251-debris", "lat": 24.56782660819141, "lon": -66.27130181924326, "alt_km": 1039.4773352014518, "timestamp": "2025-12-20T14:38:02.365131+00:00", "meta": {"OBJECT_NAME": "COSMOS 2251 DEB", "OBJECT_ID": "1993-036AKH", "EPOCH": "2025-12-17T04:00:48.812832", "MEAN_MOTION": 13.92829249, "ECCENTRICITY": 0.02424604, "INCLINATION": 74.0187, "RA_OF_ASC_NODE": 127.1529, "ARG_OF_PERICENTER": 295.4748, "MEAN_ANOMALY": 245.9503, "EPHEMERIS_TYPE": 0, "CLASSIFICATION_TYPE": "U", "NORAD_CAT_ID": 35439, "ELEMENT_SET_NO": 999, "REV_AT_EPOCH": 84022, "BSTAR": 0.0013909461, "MEAN_MOTION_DOT": 2.269e-05, "MEAN_MOTION_DDOT": 0}, "tle": {"line1": "1 35439U 93036AKH 25351.16723163  .00002269  00000+0  13909-2 0  9992", "line2": "2 35439  74.0187 127.1529 0242460 295.4748 245.9503 13.92829249840220"}}, "geometry": {"type": "Point", "coordinates": [-66.27130181924326, 24.56782660819141]}}, {"type": "Feature", "properties": {"norad_id": 35440, "name": "COSMOS 2251 DEB", "group": "cosmos-2251-debris", "lat": -36.37173763621078, "lon": 24.565941322986728, "alt_km": 689.8303132284836, "timestamp": "2025-12-20T14:38:02.365141+00:00", "meta": {"OBJECT_NAME": "COSMOS 2251 DEB", "OBJECT_ID": "1993-036AKJ", "EPOCH": "2025-12-17T20:15:19.490976", "MEAN_MOTION": 14.68838958, "ECCENTRICITY": 0.00695054, "INCLINATION": 74.0134, "RA_OF_ASC_NODE": 197.7346, "ARG_OF_PERICENTER": 337.3687, "MEAN_ANOMALY": 22.4422, "EPHEMERIS_TYPE": 0, "CLASSIFICATION_TYPE": "U", "NORAD_CAT_ID": 35440, "ELEMENT_SET_NO": 999, "REV_AT_EPOCH": 68840, "BSTAR": 0.00030670457, "MEAN_MOTION_DOT": 1.824e-05, "MEAN_MOTION_DDOT": 0}, "tle": {"line1": "1 35440U 93036AKJ 25351.84397559  .00001824  00000+0  30670-3 0  9996", "line2": "2 35440  74.0134 197.7346 0069505 337.3687  22.4422 14.68838958688408"}}, "geometry": {"type": "Point", "coordinates": [24.565941322986728, -36.37173763621078]}}, {"type": "Feature", "properties": {"norad_id": 35441, "name": "COSMOS 2251 DEB", "group": "cosmos-2251-debris", "lat": -2.7898082785748417, "lon": -77.67986588492441, "alt_km": 713.3437925995295, "timestamp": "2025-12-20T14:38:02.365151+00:00", "meta": {"OBJECT_NAME": "COSMOS 2251 DEB", "OBJECT_ID": "1993-036AKK", "EPOCH": "2025-12-15T03:19:30.492768", "MEAN_MOTION": 14.62637993, "ECCENTRICITY": 0.00365994, "INCLINATION": 74.1346, "RA_OF_ASC_NODE": 293.5313, "ARG_OF_PERICENTER": 189.4895, "MEAN_ANOMALY": 170.5586, "EPHEMERIS_TYPE": 0, "CLASSIFICATION_TYPE": "U", "NORAD_CAT_ID": 35441, "ELEMENT_SET_NO": 999, "REV_AT_EPOCH": 87465, "BSTAR": 0.00095338273, "MEAN_MOTION_DOT": 4.868e-05, "MEAN_MOTION_DDOT": 0}, "tle": {"line1": "1 35441U 93036AKK 25349.13854737  .00004868  00000+0  95338-3 0  9995", "line2": "2 35441  74.1346 293.5313 0036599 189.4895 170.5586 14.62637993874658"}}, "geometry": {"type": "Point", "coordinates": [-77.67986588492441, -2.7898082785748417]}}, {"type": "Feature", "properties": {"norad_id": 35442, "name": "COSMOS 2251 DEB", "group": "cosmos-2251-debris", "lat": 37.60153452765155, "lon": -109.22803844607817, "alt_km": 611.1686110119736, "timestamp": "2025-12-20T14:38:02.365161+00:00", "meta": {"OBJECT_NAME": "COSMOS 2251 DEB", "OBJECT_ID": "1993-036AKL", "EPOCH": "2025-12-19T23:26:56.412384", "MEAN_MOTION": 14.84679106, "ECCENTRICITY": 0.00038001, "INCLINATION": 74.0274, "RA_OF_ASC_NODE": 84.771, "ARG_OF_PERICENTER": 58.8195, "MEAN_ANOMALY": 301.3356, "EPHEMERIS_TYPE": 0, "CLASSIFICATION_TYPE": "U", "NORAD_CAT_ID": 35442, "ELEMENT_SET_NO": 999, "REV_AT_EPOCH": 87460, "BSTAR": 0.0012023535, "MEAN_MOTION_DOT": 0.00010159, "MEAN_MOTION_DDOT": 0}, "tle": {"line1": "1 35442U 93036AKL 25353.97704181  .00010159  00000+0  12024-2 0  9990", "line2": "2 35442  74.0274  84.7710 0003800  58.8195 301.3356 14.84679106874600"}}, "geometry": {"type": "Point", "coordinates": [-109.22803844607817, 37.60153452765155]}}, {"type": "Feature", "properties": {"norad_id": 35443, "name": "COSMOS 2251 DEB", "group": "cosmos-2251-debris", "lat": 12.947896247575997, "lon": 131.83769616875267, "alt_km": 559.1775864791416, "timestamp": "2025-12-20T14:38:02.365171+00:00", "meta": {"OBJECT_NAME": "COSMOS 2251 DEB", "OBJECT_ID": "1993-036AKM", "EPOCH": "2025-12-19T13:50:47.178816", "MEAN_MOTION": 14.97233241, "ECCENTRICITY": 0.007292, "INCLINATION": 73.988, "RA_OF_ASC_NODE": 317.7188, "ARG_OF_PERICENTER": 97.8759, "MEAN_ANOMALY": 263.0711, "EPHEMERIS_TYPE": 0, "CLASSIFICATION_TYPE": "U", "NORAD_CAT_ID": 35443, "ELEMENT_SET_NO": 999, "REV_AT_EPOCH": 86980, "BSTAR": 0.0025283, "MEAN_MOTION_DOT": 0.00031007, "MEAN_MOTION_DDOT": 0}, "tle": {"line1": "1 35443U 93036AKM 25353.57693494  .00031007  00000+0  25283-2 0  9997", "line2": "2 35443  73.9880 317.7188 0072920  97.8759 263.0711 14.97233241869803"}}, "geometry": {"type": "Point", "coordinates": [131.83769616875267, 12.947896247575997]}}]}